STARLINK-2022           
1 47643U 21012Z   23293.48482759  .00026109  00000+0  17672-2 0  9998
2 47643  53.0562   2.6112 0001441 102.6418 257.4732 15.06357924148433
